[{"OBJECT_NAME":"GOKTURK 1A","OBJECT_ID":"2016-073A","EPOCH":"2022-08-17T18:29:36.454848","MEAN_MOTION":14.62740079,"ECCENTRICITY":0.000129,"INCLINATION":98.1246,"RA_OF_ASC_NODE":123.7416,"ARG_OF_PERICENTER":63.8334,"MEAN_ANOMALY":296.3034,"EPHEMERIS_TYPE":0,"CLASSIFICATION_TYPE":"U","NORAD_CAT_ID":41875,"ELEMENT_SET_NO":999,"REV_AT_EPOCH":30424,"BSTAR":-0.00046034,"MEAN_MOTION_DOT":-2.391e-5,"MEAN_MOTION_DDOT":0},{"OBJECT_NAME":"RESOURCESAT-2A","OBJECT_ID":"2016-074A","EPOCH":"2022-08-17T19:50:34.663776","MEAN_MOTION":14.21634893,"ECCENTRICITY":0.000227,"INCLINATION":98.7154,"RA_OF_ASC_NODE":304.3229,"ARG_OF_PERICENTER":125.1921,"MEAN_ANOMALY":234.9469,"EPHEMERIS_TYPE":0,"CLASSIFICATION_TYPE":"U","NORAD_CAT_ID":41877,"ELEMENT_SET_NO":999,"REV_AT_EPOCH":29548,"BSTAR":4.4944e-5,"MEAN_MOTION_DOT":5.5e-7,"MEAN_MOTION_DDOT":0},{"OBJECT_NAME":"CARTOSAT-2D","OBJECT_ID":"2017-008A","EPOCH":"2022-08-17T02:07:30.465984","MEAN_MOTION":15.19298144,"ECCENTRICITY":0.000801,"INCLINATION":97.4609,"RA_OF_ASC_NODE":288.0264,"ARG_OF_PERICENTER":110.3344,"MEAN_ANOMALY":249.8752,"EPHEMERIS_TYPE":0,"CLASSIFICATION_TYPE":"U","NORAD_CAT_ID":41948,"ELEMENT_SET_NO":999,"REV_AT_EPOCH":30500,"BSTAR":0.00012566,"MEAN_MOTION_DOT":2.585e-5,"MEAN_MOTION_DDOT":0},{"OBJECT_NAME":"SENTINEL-2B","OBJECT_ID":"2017-013A","EPOCH":"2022-08-17T20:05:08.905632","MEAN_MOTION":14.3082197,"ECCENTRICITY":0.0001478,"INCLINATION":98.5677,"RA_OF_ASC_NODE":303.7152,"ARG_OF_PERICENTER":81.2514,"MEAN_ANOMALY":278.8834,"EPHEMERIS_TYPE":0,"CLASSIFICATION_TYPE":"U","NORAD_CAT_ID":42063,"ELEMENT_SET_NO":999,"REV_AT_EPOCH":28454,"BSTAR":4.3632e-5,"MEAN_MOTION_DOT":7.1e-7,"MEAN_MOTION_DDOT":0},{"OBJECT_NAME":"ZHUHAI-1 02 (CAS-4B)","OBJECT_ID":"2017-034B","EPOCH":"2022-08-17T16:31:04.315296","MEAN_MOTION":15.12266301,"ECCENTRICITY":0.0010627,"INCLINATION":43.0185,"RA_OF_ASC_NODE":355.0799,"ARG_OF_PERICENTER":312.5924,"MEAN_ANOMALY":181.6404,"EPHEMERIS_TYPE":0,"CLASSIFICATION_TYPE":"U","NORAD_CAT_ID":42759,"ELEMENT_SET_NO":999,"REV_AT_EPOCH":28562,"BSTAR":0.00019486,"MEAN_MOTION_DOT":3.209e-5,"MEAN_MOTION_DDOT":0},{"OBJECT_NAME":"NUSAT-3 (MILANESAT)","OBJECT_ID":"2017-034C","EPOCH":"2022-08-17T19:15:29.513952","MEAN_MOTION":15.13058634,"ECCENTRICITY":0.0010209,"INCLINATION":43.0165,"RA_OF_ASC_NODE":348.8976,"ARG_OF_PERICENTER":333.5507,"MEAN_ANOMALY":158.4189,"EPHEMERIS_TYPE":0,"CLASSIFICATION_TYPE":"U","NORAD_CAT_ID":42760,"ELEMENT_SET_NO":999,"REV_AT_EPOCH":28571,"BSTAR":0.00020005,"MEAN_MOTION_DOT":3.378e-5,"MEAN_MOTION_DDOT":0},{"OBJECT_NAME":"ZHUHAI-1 01 (CAS-4A)","OBJECT_ID":"2017-034D","EPOCH":"2022-08-17T20:30:14.085216","MEAN_MOTION":15.12352277,"ECCENTRICITY":0.0010875,"INCLINATION":43.0187,"RA_OF_ASC_NODE":352.9058,"ARG_OF_PERICENTER":315.5705,"MEAN_ANOMALY":188.2021,"EPHEMERIS_TYPE":0,"CLASSIFICATION_TYPE":"U","NORAD_CAT_ID":42761,"ELEMENT_SET_NO":999,"REV_AT_EPOCH":28565,"BSTAR":0.00018548,"MEAN_MOTION_DOT":3.051e-5,"MEAN_MOTION_DDOT":0},{"OBJECT_NAME":"CARTOSAT-2E","OBJECT_ID":"2017-036C","EPOCH":"2022-08-17T18:40:24.222432","MEAN_MOTION":15.19308832,"ECCENTRICITY":0.0008344,"INCLINATION":97.4498,"RA_OF_ASC_NODE":289.4698,"ARG_OF_PERICENTER":155.9979,"MEAN_ANOMALY":272.9127,"EPHEMERIS_TYPE":0,"CLASSIFICATION_TYPE":"U","NORAD_CAT_ID":42767,"ELEMENT_SET_NO":999,"REV_AT_EPOCH":28567,"BSTAR":0.00012011,"MEAN_MOTION_DOT":2.469e-5,"MEAN_MOTION_DDOT":0},{"OBJECT_NAME":"FORMOSAT-5","OBJECT_ID":"2017-049A","EPOCH":"2022-08-17T19:28:22.670400","MEAN_MOTION":14.50866384,"ECCENTRICITY":0.001174,"INCLINATION":98.237,"RA_OF_ASC_NODE":306.12,"ARG_OF_PERICENTER":66.7067,"MEAN_ANOMALY":293.5358,"EPHEMERIS_TYPE":0,"CLASSIFICATION_TYPE":"U","NORAD_CAT_ID":42920,"ELEMENT_SET_NO":999,"REV_AT_EPOCH":26376,"BSTAR":3.6636e-5,"MEAN_MOTION_DOT":1.01e-6,"MEAN_MOTION_DDOT":0},{"OBJECT_NAME":"SENTINEL-5P","OBJECT_ID":"2017-064A","EPOCH":"2022-08-17T02:08:25.706688","MEAN_MOTION":14.19545995,"ECCENTRICITY":0.0001187,"INCLINATION":98.733,"RA_OF_ASC_NODE":168.014,"ARG_OF_PERICENTER":80.0849,"MEAN_ANOMALY":280.0461,"EPHEMERIS_TYPE":0,"CLASSIFICATION_TYPE":"U","NORAD_CAT_ID":42969,"ELEMENT_SET_NO":999,"REV_AT_EPOCH":25092,"BSTAR":4.4452e-5,"MEAN_MOTION_DOT":5.0e-7,"MEAN_MOTION_DDOT":0},{"OBJECT_NAME":"SKYSAT-C11","OBJECT_ID":"2017-068A","EPOCH":"2022-08-17T05:55:03.432000","MEAN_MOTION":15.3803957,"ECCENTRICITY":0.0002019,"INCLINATION":97.2967,"RA_OF_ASC_NODE":347.7614,"ARG_OF_PERICENTER":153.2721,"MEAN_ANOMALY":206.8628,"EPHEMERIS_TYPE":0,"CLASSIFICATION_TYPE":"U","NORAD_CAT_ID":42987,"ELEMENT_SET_NO":999,"REV_AT_EPOCH":26773,"BSTAR":0.00019127,"MEAN_MOTION_DOT":7.077e-5,"MEAN_MOTION_DDOT":0},{"OBJECT_NAME":"SKYSAT-C10","OBJECT_ID":"2017-068B","EPOCH":"2022-08-16T18:12:30.871296","MEAN_MOTION":15.38071233,"ECCENTRICITY":0.0002775,"INCLINATION":97.3017,"RA_OF_ASC_NODE":347.5564,"ARG_OF_PERICENTER":121.5562,"MEAN_ANOMALY":238.5954,"EPHEMERIS_TYPE":0,"CLASSIFICATION_TYPE":"U","NORAD_CAT_ID":42988,"ELEMENT_SET_NO":999,"REV_AT_EPOCH":26768,"BSTAR":0.0002046,"MEAN_MOTION_DOT":7.584e-5,"MEAN_MOTION_DDOT":0},{"OBJECT_NAME":"SKYSAT-C9","OBJECT_ID":"2017-068C","EPOCH":"2022-08-16T13:14:51.116064","MEAN_MOTION":15.37998051,"ECCENTRICITY":0.0001768,"INCLINATION":97.2953,"RA_OF_ASC_NODE":346.4542,"ARG_OF_PERICENTER":104.2413,"MEAN_ANOMALY":255.9029,"EPHEMERIS_TYPE":0,"CLASSIFICATION_TYPE":"U","NORAD_CAT_ID":42989,"ELEMENT_SET_NO":999,"REV_AT_EPOCH":26784,"BSTAR":0.00020482,"MEAN_MOTION_DOT":7.574e-5,"MEAN_MOTION_DDOT":0},{"OBJECT_NAME":"SKYSAT-C8","OBJECT_ID":"2017-068D","EPOCH":"2022-08-16T19:18:42.897888","MEAN_MOTION":15.38083601,"ECCENTRICITY":0.0004568,"INCLINATION":97.3026,"RA_OF_ASC_NODE":348.0255,"ARG_OF_PERICENTER":140.4475,"MEAN_ANOMALY":219.7104,"EPHEMERIS_TYPE":0,"CLASSIFICATION_TYPE":"U","NORAD_CAT_ID":42990,"ELEMENT_SET_NO":999,"REV_AT_EPOCH":26771,"BSTAR":0.00021304,"MEAN_MOTION_DOT":7.906e-5,"MEAN_MOTION_DDOT":0},{"OBJECT_NAME":"SKYSAT-C7","OBJECT_ID":"2017-068E","EPOCH":"2022-08-16T18:46:59.419488","MEAN_MOTION":15.38046451,"ECCENTRICITY":0.0002696,"INCLINATION":97.3031,"RA_OF_ASC_NODE":348.081,"ARG_OF_PERICENTER":156.7562,"MEAN_ANOMALY":203.3805,"EPHEMERIS_TYPE":0,"CLASSIFICATION_TYPE":"U","NORAD_CAT_ID":42991,"ELEMENT_SET_NO":999,"REV_AT_EPOCH":26771,"BSTAR":0.00021924,"MEAN_MOTION_DOT":8.127e-5,"MEAN_MOTION_DDOT":0},{"OBJECT_NAME":"SKYSAT-C6","OBJECT_ID":"2017-068F","EPOCH":"2022-08-17T07:02:35.712960","MEAN_MOTION":15.38050946,"ECCENTRICITY":0.0002328,"INCLINATION":97.3051,"RA_OF_ASC_NODE":348.988,"ARG_OF_PERICENTER":141.6027,"MEAN_ANOMALY":218.5385,"EPHEMERIS_TYPE":0,"CLASSIFICATION_TYPE":"U","NORAD_CAT_ID":42992,"ELEMENT_SET_NO":999,"REV_AT_EPOCH":26780,"BSTAR":0.00020305,"MEAN_MOTION_DOT":7.521e-5,"MEAN_MOTION_DDOT":0},{"OBJECT_NAME":"CARTOSAT-2F","OBJECT_ID":"2018-004A","EPOCH":"2022-08-17T22:13:57.000288","MEAN_MOTION":15.19309795,"ECCENTRICITY":0.000447,"INCLINATION":97.4444,"RA_OF_ASC_NODE":289.4808,"ARG_OF_PERICENTER":160.463,"MEAN_ANOMALY":182.0405,"EPHEMERIS_TYPE":0,"CLASSIFICATION_TYPE":"U","NORAD_CAT_ID":43111,"ELEMENT_SET_NO":999,"REV_AT_EPOCH":25487,"BSTAR":0.00013202,"MEAN_MOTION_DOT":2.719e-5,"MEAN_MOTION_DDOT":0}]