GOKTURK 1A              
1 41875U 16073A   22229.77056082 -.00002391  00000+0 -46034-3 0  9990
2 41875  98.1246 123.7416 0001290  63.8334 296.3034 14.62740079304240
RESOURCESAT-2A          
1 41877U 16074A   22229.82679009  .00000055  00000+0  44944-4 0  9991
2 41877  98.7154 304.3229 0002270 125.1921 234.9469 14.21634893295484
CARTOSAT-2D             
1 41948U 17008A   22229.08854706  .00002585  00000+0  12566-3 0  9999
2 41948  97.4609 288.0264 0008010 110.3344 249.8752 15.19298144305007
SENTINEL-2B             
1 42063U 17013A   22229.83690863  .00000071  00000+0  43632-4 0  9996
2 42063  98.5677 303.7152 0001478  81.2514 278.8834 14.30821970284549
ZHUHAI-1 02 (CAS-4B)    
1 42759U 17034B   22229.68824439  .00003209  00000+0  19486-3 0  9997
2 42759  43.0185 355.0799 0010627 312.5924 181.6404 15.12266301285624
NUSAT-3 (MILANESAT)     
1 42760U 17034C   22229.80242493  .00003378  00000+0  20005-3 0  9993
2 42760  43.0165 348.8976 0010209 333.5507 158.4189 15.13058634285718
ZHUHAI-1 01 (CAS-4A)    
1 42761U 17034D   22229.85432969  .00003051  00000+0  18548-3 0  9995
2 42761  43.0187 352.9058 0010875 315.5705 188.2021 15.12352277285657
CARTOSAT-2E             
1 42767U 17036C   22229.77805813  .00002469  00000+0  12011-3 0  9997
2 42767  97.4498 289.4698 0008344 155.9979 272.9127 15.19308832285677
FORMOSAT-5              
1 42920U 17049A   22229.81137350  .00000101  00000+0  36636-4 0  9992
2 42920  98.2370 306.1200 0011740  66.7067 293.5358 14.50866384263769
SENTINEL-5P             
1 42969U 17064A   22229.08918642  .00000050  00000+0  44452-4 0  9990
2 42969  98.7330 168.0140 0001187  80.0849 280.0461 14.19545995250929
SKYSAT-C11              
1 42987U 17068A   22229.24656750  .00007077  00000+0  19127-3 0  9997
2 42987  97.2967 347.7614 0002019 153.2721 206.8628 15.38039570267735
SKYSAT-C10              
1 42988U 17068B   22228.75869064  .00007584  00000+0  20460-3 0  9992
2 42988  97.3017 347.5564 0002775 121.5562 238.5954 15.38071233267685
SKYSAT-C9               
1 42989U 17068C   22228.55198051  .00007574  00000+0  20482-3 0  9995
2 42989  97.2953 346.4542 0001768 104.2413 255.9029 15.37998051267841
SKYSAT-C8               
1 42990U 17068D   22228.80466317  .00007906  00000+0  21304-3 0  9991
2 42990  97.3026 348.0255 0004568 140.4475 219.7104 15.38083601267710
SKYSAT-C7               
1 42991U 17068E   22228.78263217  .00008127  00000+0  21924-3 0  9997
2 42991  97.3031 348.0810 0002696 156.7562 203.3805 15.38046451267710
SKYSAT-C6               
1 42992U 17068F   22229.29346890  .00007521  00000+0  20305-3 0  9993
2 42992  97.3051 348.9880 0002328 141.6027 218.5385 15.38050946267805
CARTOSAT-2F             
1 43111U 18004A   22229.92635417  .00002719  00000+0  13202-3 0  9996
2 43111  97.4444 289.4808 0004470 160.4630 182.0405 15.19309795254873
